CCSDS_OMM_VERS = 2.0
CREATION_DATE  = 
ORIGINATOR     = 

OBJECT_NAME    = SL-3 R/B
OBJECT_ID      = 1982-039B
CENTER_NAME    = EARTH
REF_FRAME      = TEME
TIME_SYSTEM    = UTC
MEAN_ELEMENT_THEORY = SGP/SGP4

EPOCH          = 2025-11-13T14:29:05.482752
MEAN_MOTION    = 15.09296358
ECCENTRICITY   = .00320943
INCLINATION    = 81.1796
RA_OF_ASC_NODE = 349.6008
ARG_OF_PERICENTER = 348.1147
MEAN_ANOMALY   = 11.9316

EPHEMERIS_TYPE = 0
CLASSIFICATION_TYPE = U
NORAD_CAT_ID   = 13154
ELEMENT_SET_NO = 999
REV_AT_EPOCH   = 36412
BSTAR          = .40415446E-3
MEAN_MOTION_DOT = .6541E-4
MEAN_MOTION_DDOT = 0

CCSDS_OMM_VERS = 2.0
CREATION_DATE  = 
ORIGINATOR     = 

OBJECT_NAME    = SL-3 R/B
OBJECT_ID      = 1982-079B
CENTER_NAME    = EARTH
REF_FRAME      = TEME
TIME_SYSTEM    = UTC
MEAN_ELEMENT_THEORY = SGP/SGP4

EPOCH          = 2025-11-13T13:58:36.228000
MEAN_MOTION    = 15.23149583
ECCENTRICITY   = .00253398
INCLINATION    = 81.1470
RA_OF_ASC_NODE = 330.0233
ARG_OF_PERICENTER = 195.0503
MEAN_ANOMALY   = 164.9979

EPHEMERIS_TYPE = 0
CLASSIFICATION_TYPE = U
NORAD_CAT_ID   = 13403
ELEMENT_SET_NO = 999
REV_AT_EPOCH   = 36001
BSTAR          = .5258697E-3
MEAN_MOTION_DOT = .12562E-3
MEAN_MOTION_DDOT = 0

CCSDS_OMM_VERS = 2.0
CREATION_DATE  = 
ORIGINATOR     = 

OBJECT_NAME    = SL-14 R/B
OBJECT_ID      = 1982-092B
CENTER_NAME    = EARTH
REF_FRAME      = TEME
TIME_SYSTEM    = UTC
MEAN_ELEMENT_THEORY = SGP/SGP4

EPOCH          = 2025-11-13T13:19:37.513056
MEAN_MOTION    = 14.86508884
ECCENTRICITY   = .00196492
INCLINATION    = 82.5681
RA_OF_ASC_NODE = 250.0029
ARG_OF_PERICENTER = 330.8672
MEAN_ANOMALY   = 202.6038

EPHEMERIS_TYPE = 0
CLASSIFICATION_TYPE = U
NORAD_CAT_ID   = 13553
ELEMENT_SET_NO = 999
REV_AT_EPOCH   = 31167
BSTAR          = .16157376E-3
MEAN_MOTION_DOT = .1458E-4
MEAN_MOTION_DDOT = 0

CCSDS_OMM_VERS = 2.0
CREATION_DATE  = 
ORIGINATOR     = 

OBJECT_NAME    = SL-3 R/B
OBJECT_ID      = 1983-010B
CENTER_NAME    = EARTH
REF_FRAME      = TEME
TIME_SYSTEM    = UTC
MEAN_ELEMENT_THEORY = SGP/SGP4

EPOCH          = 2025-11-13T06:20:06.667584
MEAN_MOTION    = 15.42411475
ECCENTRICITY   = .00182832
INCLINATION    = 81.1029
RA_OF_ASC_NODE = 144.5694
ARG_OF_PERICENTER = 91.5448
MEAN_ANOMALY   = 268.7889

EPHEMERIS_TYPE = 0
CLASSIFICATION_TYPE = U
NORAD_CAT_ID   = 13819
ELEMENT_SET_NO = 999
REV_AT_EPOCH   = 33997
BSTAR          = .56768342E-3
MEAN_MOTION_DOT = .24747E-3
MEAN_MOTION_DDOT = 0

CCSDS_OMM_VERS = 2.0
CREATION_DATE  = 
ORIGINATOR     = 

OBJECT_NAME    = SL-3 R/B
OBJECT_ID      = 1983-075B
CENTER_NAME    = EARTH
REF_FRAME      = TEME
TIME_SYSTEM    = UTC
MEAN_ELEMENT_THEORY = SGP/SGP4

EPOCH          = 2025-11-13T14:18:55.716480
MEAN_MOTION    = 15.35328772
ECCENTRICITY   = .00210846
INCLINATION    = 97.6108
RA_OF_ASC_NODE = 313.1204
ARG_OF_PERICENTER = 286.2272
MEAN_ANOMALY   = 73.6650

EPHEMERIS_TYPE = 0
CLASSIFICATION_TYPE = U
NORAD_CAT_ID   = 14208
ELEMENT_SET_NO = 999
REV_AT_EPOCH   = 31232
BSTAR          = .60513884E-3
MEAN_MOTION_DOT = .20859E-3
MEAN_MOTION_DDOT = 0

CCSDS_OMM_VERS = 2.0
CREATION_DATE  = 
ORIGINATOR     = 

OBJECT_NAME    = COSMOS 1536
OBJECT_ID      = 1984-013A
CENTER_NAME    = EARTH
REF_FRAME      = TEME
TIME_SYSTEM    = UTC
MEAN_ELEMENT_THEORY = SGP/SGP4

EPOCH          = 2025-11-13T14:54:20.885184
MEAN_MOTION    = 15.22046663
ECCENTRICITY   = .0014512
INCLINATION    = 82.5468
RA_OF_ASC_NODE = 223.0275
ARG_OF_PERICENTER = 338.7860
MEAN_ANOMALY   = 21.2772

EPHEMERIS_TYPE = 0
CLASSIFICATION_TYPE = U
NORAD_CAT_ID   = 14699
ELEMENT_SET_NO = 999
REV_AT_EPOCH   = 25495
BSTAR          = .75460148E-3
MEAN_MOTION_DOT = .17348E-3
MEAN_MOTION_DDOT = 0

CCSDS_OMM_VERS = 2.0
CREATION_DATE  = 
ORIGINATOR     = 

OBJECT_NAME    = SL-14 R/B
OBJECT_ID      = 1984-027B
CENTER_NAME    = EARTH
REF_FRAME      = TEME
TIME_SYSTEM    = UTC
MEAN_ELEMENT_THEORY = SGP/SGP4

EPOCH          = 2025-11-13T12:44:08.714688
MEAN_MOTION    = 14.85831170
ECCENTRICITY   = .00180062
INCLINATION    = 82.5427
RA_OF_ASC_NODE = 353.9493
ARG_OF_PERICENTER = 3.3898
MEAN_ANOMALY   = 356.7437

EPHEMERIS_TYPE = 0
CLASSIFICATION_TYPE = U
NORAD_CAT_ID   = 14820
ELEMENT_SET_NO = 999
REV_AT_EPOCH   = 23038
BSTAR          = .12164244E-3
MEAN_MOTION_DOT = .1085E-4
MEAN_MOTION_DDOT = 0

CCSDS_OMM_VERS = 2.0
CREATION_DATE  = 
ORIGINATOR     = 

OBJECT_NAME    = SL-8 R/B
OBJECT_ID      = 1985-006B
CENTER_NAME    = EARTH
REF_FRAME      = TEME
TIME_SYSTEM    = UTC
MEAN_ELEMENT_THEORY = SGP/SGP4

EPOCH          = 2025-11-13T10:57:50.964768
MEAN_MOTION    = 14.37694707
ECCENTRICITY   = .00176201
INCLINATION    = 74.0433
RA_OF_ASC_NODE = 115.0084
ARG_OF_PERICENTER = 56.6464
MEAN_ANOMALY   = 4.5444

EPHEMERIS_TYPE = 0
CLASSIFICATION_TYPE = U
NORAD_CAT_ID   = 15483
ELEMENT_SET_NO = 999
REV_AT_EPOCH   = 13732
BSTAR          = .21930323E-3
MEAN_MOTION_DOT = .634E-5
MEAN_MOTION_DDOT = 0

CCSDS_OMM_VERS = 2.0
CREATION_DATE  = 
ORIGINATOR     = 

OBJECT_NAME    = SL-12 R/B(2)
OBJECT_ID      = 1985-042D
CENTER_NAME    = EARTH
REF_FRAME      = TEME
TIME_SYSTEM    = UTC
MEAN_ELEMENT_THEORY = SGP/SGP4

EPOCH          = 2025-11-13T11:46:38.220096
MEAN_MOTION    = 14.21938083
ECCENTRICITY   = .00372773
INCLINATION    = 71.1084
RA_OF_ASC_NODE = 333.2137
ARG_OF_PERICENTER = 304.2989
MEAN_ANOMALY   = 164.8963

EPHEMERIS_TYPE = 0
CLASSIFICATION_TYPE = U
NORAD_CAT_ID   = 15772
ELEMENT_SET_NO = 999
REV_AT_EPOCH   = 9787
BSTAR          = .12127716E-3
MEAN_MOTION_DOT = .222E-5
MEAN_MOTION_DDOT = 0

CCSDS_OMM_VERS = 2.0
CREATION_DATE  = 
ORIGINATOR     = 

OBJECT_NAME    = SL-14 R/B
OBJECT_ID      = 1985-069B
CENTER_NAME    = EARTH
REF_FRAME      = TEME
TIME_SYSTEM    = UTC
MEAN_ELEMENT_THEORY = SGP/SGP4

EPOCH          = 2025-11-13T11:35:54.466656
MEAN_MOTION    = 14.86273387
ECCENTRICITY   = .00179344
INCLINATION    = 82.5245
RA_OF_ASC_NODE = 134.2088
ARG_OF_PERICENTER = 213.7002
MEAN_ANOMALY   = 146.3075

EPHEMERIS_TYPE = 0
CLASSIFICATION_TYPE = U
NORAD_CAT_ID   = 15945
ELEMENT_SET_NO = 999
REV_AT_EPOCH   = 15557
BSTAR          = .13495784E-3
MEAN_MOTION_DOT = .1214E-4
MEAN_MOTION_DDOT = 0

CCSDS_OMM_VERS = 2.0
CREATION_DATE  = 
ORIGINATOR     = 

OBJECT_NAME    = SL-16 R/B
OBJECT_ID      = 1985-097B
CENTER_NAME    = EARTH
REF_FRAME      = TEME
TIME_SYSTEM    = UTC
MEAN_ELEMENT_THEORY = SGP/SGP4

EPOCH          = 2025-11-13T11:32:12.221664
MEAN_MOTION    = 14.16576229
ECCENTRICITY   = .00052882
INCLINATION    = 71.0045
RA_OF_ASC_NODE = 25.2015
ARG_OF_PERICENTER = 66.2935
MEAN_ANOMALY   = 24.5920

EPHEMERIS_TYPE = 0
CLASSIFICATION_TYPE = U
NORAD_CAT_ID   = 16182
ELEMENT_SET_NO = 999
REV_AT_EPOCH   = 7077
BSTAR          = .51244372E-4
MEAN_MOTION_DOT = .54E-6
MEAN_MOTION_DDOT = 0

CCSDS_OMM_VERS = 2.0
CREATION_DATE  = 
ORIGINATOR     = 

OBJECT_NAME    = SL-14 R/B
OBJECT_ID      = 1986-006B
CENTER_NAME    = EARTH
REF_FRAME      = TEME
TIME_SYSTEM    = UTC
MEAN_ELEMENT_THEORY = SGP/SGP4

EPOCH          = 2025-11-13T13:20:18.225600
MEAN_MOTION    = 14.86613975
ECCENTRICITY   = .00754095
INCLINATION    = 82.5290
RA_OF_ASC_NODE = 9.0099
ARG_OF_PERICENTER = 298.2364
MEAN_ANOMALY   = 61.1254

EPHEMERIS_TYPE = 0
CLASSIFICATION_TYPE = U
NORAD_CAT_ID   = 16496
ELEMENT_SET_NO = 999
REV_AT_EPOCH   = 13195
BSTAR          = .15800306E-3
MEAN_MOTION_DOT = .15E-4
MEAN_MOTION_DDOT = 0

